{"type": "FeatureCollection", "features": [ {"type": "Feature", "properties": {"norad_id": 32289, "name": "YAOGAN-3", "group": "resource", "lat": -29.92548981538452, "lon": 25.50313989163468, "alt_km": 604.4338118267951, "timestamp": "2025-12-20T09:36:01.288225+00:00", "meta": {"OBJECT_NAME": "YAOGAN-3", "OBJECT_ID": "2007-055A", "EPOCH": "2025-12-19T22:27:10.213632", "MEAN_MOTION": 14.89888529, "ECCENTRICITY": 0.00011881, "INCLINATION": 97.8359, "RA_OF_ASC_NODE": 20.4962, "ARG_OF_PERICENTER": 73.0706, "MEAN_ANOMALY": 287.0641, "EPHEMERIS_TYPE": 0, "CLASSIFICATION_TYPE": "U", "NORAD_CAT_ID": 32289, "ELEMENT_SET_NO": 999, "REV_AT_EPOCH": 97916, "BSTAR": 0.00011389968, "MEAN_MOTION_DOT": 1.04e-05, "MEAN_MOTION_DDOT": 0}, "tle": {"line1": "1 32289U 07055A   25353.93553488  .00001040  00000+0  11390-3 0  9995", "line2": "2 32289  97.8359  20.4962 0001188  73.0706 287.0641 14.89888529979163"}}, "geometry": {"type": "Point", "coordinates": [25.50313989163468, -29.92548981538452]}}, {"type": "Feature", "properties": {"norad_id": 32376, "name": "COSMO-SKYMED 2", "group": "resource", "lat": 35.76524951319585, "lon": 169.88252059535955, "alt_km": 619.4535990820877, "timestamp": "2025-12-20T09:36:01.288237+00:00", "meta": {"OBJECT_NAME": "COSMO-SKYMED 2", "OBJECT_ID": "2007-059A", "EPOCH": "2025-12-19T22:05:45.462048", "MEAN_MOTION": 14.8215075, "ECCENTRICITY": 0.00013535, "INCLINATION": 97.8804, "RA_OF_ASC_NODE": 175.1363, "ARG_OF_PERICENTER": 82.9394, "MEAN_ANOMALY": 277.1973, "EPHEMERIS_TYPE": 0, "CLASSIFICATION_TYPE": "U", "NORAD_CAT_ID": 32376, "ELEMENT_SET_NO": 999, "REV_AT_EPOCH": 97544, "BSTAR": 5.1680259e-05, "MEAN_MOTION_DOT": 3.59e-06, "MEAN_MOTION_DDOT": 0}, "tle": {"line1": "1 32376U 07059A   25353.92066507  .00000359  00000+0  51680-4 0  9995", "line2": "2 32376  97.8804 175.1363 0001353  82.9394 277.1973 14.82150750975440"}}, "geometry": {"type": "Point", "coordinates": [169.88252059535955, 35.76524951319585]}}, {"type": "Feature", "properties": {"norad_id": 32382, "name": "RADARSAT-2", "group": "resource", "lat": -11.074905085627735, "lon": 0.5720767510442114, "alt_km": 796.1165349371786, "timestamp": "2025-12-20T09:36:01.288247+00:00", "meta": {"OBJECT_NAME": "RADARSAT-2", "OBJECT_ID": "2007-061A", "EPOCH": "2025-12-19T23:34:36.537312", "MEAN_MOTION": 14.29983859, "ECCENTRICITY": 0.00011092, "INCLINATION": 98.5791, "RA_OF_ASC_NODE": 358.4673, "ARG_OF_PERICENTER": 85.6069, "MEAN_ANOMALY": 274.524, "EPHEMERIS_TYPE": 0, "CLASSIFICATION_TYPE": "U", "NORAD_CAT_ID": 32382, "ELEMENT_SET_NO": 999, "REV_AT_EPOCH": 94034, "BSTAR": 3.9467192e-05, "MEAN_MOTION_DOT": 5.8e-07, "MEAN_MOTION_DDOT": 0}, "tle": {"line1": "1 32382U 07061A   25353.98236733  .00000058  00000+0  39467-4 0  9996", "line2": "2 32382  98.5791 358.4673 0001109  85.6069 274.5240 14.29983859940342"}}, "geometry": {"type": "Point", "coordinates": [0.5720767510442114, -11.074905085627735]}}, {"type": "Feature", "properties": {"norad_id": 32783, "name": "CARTOSAT-2A", "group": "resource", "lat": 81.86491504524764, "lon": -29.347601264746032, "alt_km": 627.6100488353759, "timestamp": "2025-12-20T09:36:01.288258+00:00", "meta": {"OBJECT_NAME": "CARTOSAT-2A", "OBJECT_ID": "2008-021A", "EPOCH": "2025-12-20T04:20:04.219296", "MEAN_MOTION": 14.78950753, "ECCENTRICITY": 0.0011251, "INCLINATION": 97.7924, "RA_OF_ASC_NODE": 43.7721, "ARG_OF_PERICENTER": 340.392, "MEAN_ANOMALY": 19.6857, "EPHEMERIS_TYPE": 0, "CLASSIFICATION_TYPE": "U", "NORAD_CAT_ID": 32783, "ELEMENT_SET_NO": 999, "REV_AT_EPOCH": 95234, "BSTAR": 0.00013169, "MEAN_MOTION_DOT": 9.22e-06, "MEAN_MOTION_DDOT": 0}, "tle": {"line1": "1 32783U 08021A   25354.18060439  .00000922  00000+0  13169-3 0  9999", "line2": "2 32783  97.7924  43.7721 0011251 340.3920  19.6857 14.78950753952346"}}, "geometry": {"type": "Point", "coordinates": [-29.347601264746032, 81.86491504524764]}}, {"type": "Feature", "properties": {"norad_id": 33320, "name": "HUANJING 1A (HJ-1A)", "group": "resource", "lat": 74.00118354357978, "lon": -45.58996294712871, "alt_km": 605.8590936069704, "timestamp": "2025-12-20T09:36:01.288268+00:00", "meta": {"OBJECT_NAME": "HUANJING 1A (HJ-1A)", "OBJECT_ID": "2008-041A", "EPOCH": "2025-12-20T04:24:13.974912", "MEAN_MOTION": 14.8341547, "ECCENTRICITY": 0.0019642, "INCLINATION": 97.6535, "RA_OF_ASC_NODE": 342.1712, "ARG_OF_PERICENTER": 10.7747, "MEAN_ANOMALY": 349.3884, "EPHEMERIS_TYPE": 0, "CLASSIFICATION_TYPE": "U", "NORAD_CAT_ID": 33320, "ELEMENT_SET_NO": 999, "REV_AT_EPOCH": 93186, "BSTAR": 0.00014007, "MEAN_MOTION_DOT": 1.102e-05, "MEAN_MOTION_DDOT": 0}, "tle": {"line1": "1 33320U 08041A   25354.18349508  .00001102  00000+0  14007-3 0  9999", "line2": "2 33320  97.6535 342.1712 0019642  10.7747 349.3884 14.83415470931869"}}, "geometry": {"type": "Point", "coordinates": [-45.58996294712871, 74.00118354357978]}}, {"type": "Feature", "properties": {"norad_id": 33321, "name": "HUANJING 1B (HJ-1B)", "group": "resource", "lat": -76.92960174614312, "lon": 21.37500866000776, "alt_km": 645.0705998277281, "timestamp": "2025-12-20T09:36:01.288280+00:00", "meta": {"OBJECT_NAME": "HUANJING 1B (HJ-1B)", "OBJECT_ID": "2008-041B", "EPOCH": "2025-12-20T05:05:57.708672", "MEAN_MOTION": 14.82840621, "ECCENTRICITY": 0.0037997, "INCLINATION": 97.6395, "RA_OF_ASC_NODE": 345.8765, "ARG_OF_PERICENTER": 52.1734, "MEAN_ANOMALY": 308.291, "EPHEMERIS_TYPE": 0, "CLASSIFICATION_TYPE": "U", "NORAD_CAT_ID": 33321, "ELEMENT_SET_NO": 999, "REV_AT_EPOCH": 93188, "BSTAR": 0.0001633, "MEAN_MOTION_DOT": 1.287e-05, "MEAN_MOTION_DDOT": 0}, "tle": {"line1": "1 33321U 08041B   25354.21247348  .00001287  00000+0  16330-3 0  9998", "line2": "2 33321  97.6395 345.8765 0037997  52.1734 308.2910 14.82840621931886"}}, "geometry": {"type": "Point", "coordinates": [21.37500866000776, -76.92960174614312]}}, {"type": "Feature", "properties": {"norad_id": 33331, "name": "GEOEYE 1", "group": "resource", "lat": 50.00894334213542, "lon": -104.61083847725644, "alt_km": 674.5072369983691, "timestamp": "2025-12-20T09:36:01.288291+00:00", "meta": {"OBJECT_NAME": "GEOEYE 1", "OBJECT_ID": "2008-042A", "EPOCH": "2025-12-20T04:05:36.757248", "MEAN_MOTION": 14.64709473, "ECCENTRICITY": 0.0002811, "INCLINATION": 98.1244, "RA_OF_ASC_NODE": 65.3576, "ARG_OF_PERICENTER": 252.467, "MEAN_ANOMALY": 107.6225, "EPHEMERIS_TYPE": 0, "CLASSIFICATION_TYPE": "U", "NORAD_CAT_ID": 33331, "ELEMENT_SET_NO": 999, "REV_AT_EPOCH": 92394, "BSTAR": 8.2665e-05, "MEAN_MOTION_DOT": 3.93e-06, "MEAN_MOTION_DDOT": 0}, "tle": {"line1": "1 33331U 08042A   25354.17056432  .00000393  00000+0  82665-4 0  9999", "line2": "2 33331  98.1244  65.3576 0002811 252.4670 107.6225 14.64709473923948"}}, "geometry": {"type": "Point", "coordinates": [-104.61083847725644, 50.00894334213542]}}, {"type": "Feature", "properties": {"norad_id": 33396, "name": "THEOS", "group": "resource", "lat": -16.858087218967885, "lon": -130.360019737923, "alt_km": 830.0100097396971, "timestamp": "2025-12-20T09:36:01.288301+00:00", "meta": {"OBJECT_NAME": "THEOS", "OBJECT_ID": "2008-049A", "EPOCH": "2025-12-20T03:36:10.933920", "MEAN_MOTION": 14.20098382, "ECCENTRICITY": 0.0001164, "INCLINATION": 98.5863, "RA_OF_ASC_NODE": 52.0216, "ARG_OF_PERICENTER": 96.7502, "MEAN_ANOMALY": 263.3807, "EPHEMERIS_TYPE": 0, "CLASSIFICATION_TYPE": "U", "NORAD_CAT_ID": 33396, "ELEMENT_SET_NO": 999, "REV_AT_EPOCH": 89255, "BSTAR": 0.00013323, "MEAN_MOTION_DOT": 2.41e-06, "MEAN_MOTION_DDOT": 0}, "tle": {"line1": "1 33396U 08049A   25354.15012655  .00000241  00000+0  13323-3 0  9990", "line2": "2 33396  98.5863  52.0216 0001164  96.7502 263.3807 14.20098382892557"}}, "geometry": {"type": "Point", "coordinates": [-130.360019737923, -16.858087218967885]}}, {"type": "Feature", "properties": {"norad_id": 33412, "name": "COSMO-SKYMED 3", "group": "resource", "lat": 66.07456452804183, "lon": 43.02995538590453, "alt_km": 534.0512354430648, "timestamp": "2025-12-20T09:36:01.288312+00:00", "meta": {"OBJECT_NAME": "COSMO-SKYMED 3", "OBJECT_ID": "2008-054A", "EPOCH": "2025-12-20T04:18:57.981600", "MEAN_MOTION": 15.05418996, "ECCENTRICITY": 0.0016849, "INCLINATION": 97.8466, "RA_OF_ASC_NODE": 204.6968, "ARG_OF_PERICENTER": 146.9595, "MEAN_ANOMALY": 213.2687, "EPHEMERIS_TYPE": 0, "CLASSIFICATION_TYPE": "U", "NORAD_CAT_ID": 33412, "ELEMENT_SET_NO": 999, "REV_AT_EPOCH": 92999, "BSTAR": 0.0001744, "MEAN_MOTION_DOT": 2.444e-05, "MEAN_MOTION_DDOT": 0}, "tle": {"line1": "1 33412U 08054A   25354.17983775  .00002444  00000+0  17440-3 0  9998", "line2": "2 33412  97.8466 204.6968 0016849 146.9595 213.2687 15.05418996929992"}}, "geometry": {"type": "Point", "coordinates": [43.02995538590453, 66.07456452804183]}}, {"type": "Feature", "properties": {"norad_id": 33446, "name": "YAOGAN-4", "group": "resource", "lat": -8.897789088441378, "lon": 103.17558279722793, "alt_km": 627.6783533364687, "timestamp": "2025-12-20T09:36:01.288344+00:00", "meta": {"OBJECT_NAME": "YAOGAN-4", "OBJECT_ID": "2008-061A", "EPOCH": "2025-12-20T02:16:16.821696", "MEAN_MOTION": 14.82701971, "ECCENTRICITY": 0.0013132, "INCLINATION": 97.9192, "RA_OF_ASC_NODE": 284.1219, "ARG_OF_PERICENTER": 297.4336, "MEAN_ANOMALY": 62.5541, "EPHEMERIS_TYPE": 0, "CLASSIFICATION_TYPE": "U", "NORAD_CAT_ID": 33446, "ELEMENT_SET_NO": 999, "REV_AT_EPOCH": 91912, "BSTAR": 0.0001179, "MEAN_MOTION_DOT": 8.99e-06, "MEAN_MOTION_DDOT": 0}, "tle": {"line1": "1 33446U 08061A   25354.09463914  .00000899  00000+0  11790-3 0  9996", "line2": "2 33446  97.9192 284.1219 0013132 297.4336  62.5541 14.82701971919125"}}, "geometry": {"type": "Point", "coordinates": [103.17558279722793, -8.897789088441378]}}]}